ORBCOMM FM37 [-]        
1 33064U 08031E   23354.98496321  .00002318  00000+0  36602-3 0  9990
2 33064  48.4428  41.9389 0006195 213.9621 211.7642 14.75588532833574
ORBCOMM FM40 [-]        
1 33065U 08031F   23354.96423164  .00003165  00000+0  47606-3 0  9991
2 33065  48.4443  32.6812 0007676 221.3126 205.2811 14.76729379833593
VESSELSAT 1 [-]         
1 37840U 11058C   23354.86388404  .00000406  00000+0  77122-4 0  9997
2 37840  19.9603 146.8788 0013755 320.6696  39.2709 14.11094655629550
ORBCOMM FM109 [+]       
1 40086U 14040A   23353.32916451  .00001162  00000+0  29822-3 0  9999
2 40086  47.0045  70.1413 0002461 302.7993  57.2654 14.56175985501457
ORBCOMM FM107 [+]       
1 40087U 14040B   23354.32382262  .00001233  00000+0  31406-3 0  9998
2 40087  47.0065  66.4007 0002373 277.6853  82.3762 14.56172748501671
ORBCOMM FM106 [-]       
1 40088U 14040C   23354.90740873  .00001757  00000+0  34716-3 0  9997
2 40088  47.0620 287.1472 0017746  61.4516 298.8158 14.66365426503518
ORBCOMM FM111 [-]       
1 40089U 14040D   23355.65139205  .00002825  00000+0  38764-3 0  9996
2 40089  47.0025 200.9755 0032788 121.4336 238.9771 14.80612538509534
ORBCOMM FM104 [-]       
1 40090U 14040E   23355.38890894  .00001235  00000+0  32391-3 0  9990
2 40090  47.0059  88.7580 0018037 243.8070 116.0959 14.54713418501396
